NORAD_CAT_ID,OBJECT_NAME,OBJECT_TYPE,EPOCH,MEAN_MOTION,ECCENTRICITY,INCLINATION,RA_OF_ASC_NODE,ARG_OF_PERICENTER,MEAN_ANOMALY,BSTAR,MEAN_MOTION_DOT,MEAN_MOTION_DDOT,TLE_LINE0,TLE_LINE1,TLE_LINE2,SEMIMAJOR_AXIS,PERIOD,APOGEE,PERIGEE,DECAYED
53412.0,STARLINK-4496,PAYLOAD,2023-09-14 01:51:04,15.08832731,0.0001411,53.2168,228.5522,97.5784,262.5368,-9.4434e-05,-1.79e-05,0.0,0 STARLINK-4496,1 53412U 22097AA  23257.07713137 -.00001790  00000-0 -94434-4 0  9990,2 53412  53.2168 228.5522 0001411  97.5784 262.5368 15.08832731 61147,6917.903,95.438,540.744,538.791,0.0
53412.0,STARLINK-4496,PAYLOAD,2023-09-14 06:37:13,15.08834701,0.0001519,53.2172,227.6609,94.0643,266.0523,-7.2384e-05,-1.44e-05,0.0,0 STARLINK-4496,1 53412U 22097AA  23257.27585033 -.00001440  00000-0 -72384-4 0  9996,2 53412  53.2172 227.6609 0001519  94.0643 266.0523 15.08834701 61661,6917.897,95.438,540.812,538.711,0.0
53412.0,STARLINK-4496,PAYLOAD,2023-09-15 04:52:36,15.088429,0.0001475,53.2173,223.498,100.249,259.8668,3.0443e-05,1.97e-06,0.0,0 STARLINK-4496,1 53412U 22097AA  23258.20320540  .00000197  00000-0  30443-4 0  9996,2 53412  53.2173 223.4980 0001475 100.2490 259.8668 15.08842900 61311,6917.872,95.437,540.757,538.716,0.0
53412.0,STARLINK-4496,PAYLOAD,2023-09-15 08:03:23,15.08845406,0.0001418,53.2171,222.9016,94.5949,265.5205,5.9438e-05,6.58e-06,0.0,0 STARLINK-4496,1 53412U 22097AA  23258.33568315  .00000658  00000-0  59438-4 0  9991,2 53412  53.2171 222.9016 0001418  94.5949 265.5205 15.08845406 61825,6917.864,95.437,540.71,538.748,0.0
53412.0,STARLINK-4496,PAYLOAD,2023-09-16 01:32:38,15.08831508,0.0001292,53.2173,219.6305,88.7416,271.3725,0.00014051,1.949e-05,0.0,0 STARLINK-4496,1 53412U 22097AA  23259.06433290  .00001949  00000-0  14051-3 0  9990,2 53412  53.2173 219.6305 0001292  88.7416 271.3725 15.08831508 61443,6917.906,95.438,540.665,538.878,0.0
53412.0,STARLINK-4496,PAYLOAD,2023-09-16 07:54:10,15.08837512,0.0001271,53.2167,218.4424,83.6739,276.4398,0.0001943,2.806e-05,0.0,0 STARLINK-4496,1 53412U 22097AA  23259.32928916  .00002806  00000-0  19430-3 0  9992,2 53412  53.2167 218.4424 0001271  83.6739 276.4398 15.08837512 61975,6917.888,95.438,540.632,538.874,0.0
53412.0,STARLINK-4496,PAYLOAD,2023-09-17 07:44:57,15.08854483,0.000131,53.216,213.9834,102.2804,257.8335,6.3199e-05,7.18e-06,0.0,0 STARLINK-4496,1 53412U 22097AA  23260.32288263  .00000718  00000-0  63199-4 0  9990,2 53412  53.2160 213.9834 0001310 102.2804 257.8335 15.08854483 61631,6917.836,95.437,540.607,538.795,0.0
53412.0,STARLINK-4496,PAYLOAD,2023-09-18 02:49:34,15.08849716,0.0001351,53.2161,210.4132,86.9327,273.182,9.9119e-05,1.29e-05,0.0,0 STARLINK-4496,1 53412U 22097AA  23261.11776488  .00001290  00000-0  99119-4 0  9996,2 53412  53.2161 210.4132 0001351  86.9327 273.1820 15.08849716 61754,6917.851,95.437,540.65,538.781,0.0
53412.0,STARLINK-4496,PAYLOAD,2023-09-18 06:00:20,15.08852365,0.0001364,53.2163,209.8184,85.2584,274.8564,0.00011764,1.585e-05,0.0,0 STARLINK-4496,1 53412U 22097AA  23261.25024214  .00001585  00000-0  11764-3 0  9990,2 53412  53.2163 209.8184 0001364  85.2584 274.8564 15.08852365 62260,6917.843,95.437,540.651,538.764,0.0
53412.0,STARLINK-4496,PAYLOAD,2023-09-18 20:18:49,15.08840633,0.0001438,53.2176,207.1422,93.9194,266.1963,7.3515e-05,8.82e-06,0.0,0 STARLINK-4496,1 53412U 22097AA  23261.84640955  .00000882  00000-0  73515-4 0  9993,2 53412  53.2176 207.1422 0001438  93.9194 266.1963 15.08840633 62357,6917.878,95.438,540.738,538.749,0.0
53412.0,STARLINK-4496,PAYLOAD,2023-09-19 02:40:22,15.0884703,0.0001638,53.2164,205.9534,83.8858,276.2321,5.1349e-05,5.29e-06,0.0,0 STARLINK-4496,1 53412U 22097AA  23262.11136663  .00000529  00000-0  51349-4 0  9999,2 53412  53.2164 205.9534 0001638  83.8858 276.2321 15.08847030 61909,6917.859,95.437,540.857,538.591,0.0
53412.0,STARLINK-4496,PAYLOAD,2023-09-20 05:41:55,15.08847203,0.0001659,53.2175,200.8963,86.9448,273.1734,-5.4314e-06,-3.75e-06,0.0,0 STARLINK-4496,1 53412U 22097AA  23263.23744440 -.00000375  00000-0 -54314-5 0  9998,2 53412  53.2175 200.8963 0001659  86.9448 273.1734 15.08847203 62078,6917.858,95.437,540.871,538.576,0.0
53412.0,STARLINK-4496,PAYLOAD,2023-09-20 20:00:24,15.08827962,0.000169,53.2165,198.2192,111.1589,248.9584,-0.00013699,-2.467e-05,0.0,0 STARLINK-4496,1 53412U 22097AA  23263.83362246 -.00002467  00000-0 -13699-3 0  9997,2 53412  53.2165 198.2192 0001690 111.1589 248.9584 15.08827962 62650,6917.917,95.438,540.951,538.613,0.0
53412.0,STARLINK-4496,PAYLOAD,2023-09-21 02:21:57,15.0883019,0.0001331,53.2172,197.031,104.6466,255.4674,-0.00011332,-2.09e-05,0.0,0 STARLINK-4496,1 53412U 22097AA  23264.09858245 -.00002090  00000-0 -11332-3 0  9999,2 53412  53.2172 197.0310 0001331 104.6466 255.4674 15.08830190 62201,6917.91,95.438,540.696,538.855,0.0
53412.0,STARLINK-4496,PAYLOAD,2023-09-21 05:32:43,15.08829967,0.0001355,53.2169,196.4358,104.0865,256.0277,-7.7127e-05,-1.515e-05,0.0,0 STARLINK-4496,1 53412U 22097AA  23264.23106311 -.00001515  00000-0 -77127-4 0  9991,2 53412  53.2169 196.4358 0001355 104.0865 256.0277 15.08829967 62717,6917.911,95.438,540.713,538.839,0.0
53412.0,STARLINK-4496,PAYLOAD,2023-09-22 02:12:43,15.08848031,0.000116,53.2168,192.5723,101.0665,259.0457,0.00017888,2.561e-05,0.0,0 STARLINK-4496,1 53412U 22097AA  23265.09217444  .00002561  00000-0  17888-3 0  9993,2 53412  53.2168 192.5723 0001160 101.0665 259.0457 15.08848031 62354,6917.856,95.437,540.523,538.918,0.0
53412.0,STARLINK-4496,PAYLOAD,2023-09-22 18:06:35,15.08842233,0.0001095,53.2167,189.6035,101.807,258.3045,0.00036373,5.506e-05,0.0,0 STARLINK-4496,1 53412U 22097AA  23265.75457802  .00005506  00000-0  36373-3 0  9992,2 53412  53.2167 189.6035 0001095 101.8070 258.3045 15.08842233 62455,6917.874,95.437,540.496,538.981,0.0
53412.0,STARLINK-4496,PAYLOAD,2023-09-23 03:38:54,15.08850373,9.73e-05,53.2167,187.8145,94.1028,266.0075,0.00033492,5.048e-05,0.0,0 STARLINK-4496,1 53412U 22097AA  23266.15201476  .00005048  00000-0  33492-3 0  9991,2 53412  53.2167 187.8145 0000973  94.1028 266.0075 15.08850373 63003,6917.849,95.437,540.387,539.041,0.0
53412.0,STARLINK-4496,PAYLOAD,2023-09-24 03:29:41,15.08849992,0.000113,53.2158,183.3545,87.4193,272.6928,0.00015178,2.129e-05,0.0,0 STARLINK-4496,1 53412U 22097AA  23267.14561349  .00002129  00000-0  15178-3 0  9997,2 53412  53.2158 183.3545 0001130  87.4193 272.6928 15.08849992 62668,6917.85,95.437,540.497,538.933,0.0
53412.0,STARLINK-4496,PAYLOAD,2023-09-24 22:34:19,15.08838106,0.0001216,53.2158,179.7857,82.2674,277.8456,5.5961e-05,6.03e-06,0.0,0 STARLINK-4496,1 53412U 22097AA  23267.94049963  .00000603  00000-0  55961-4 0  9998,2 53412  53.2158 179.7857 0001216  82.2674 277.8456 15.08838106 63271,6917.886,95.438,540.592,538.91,0.0
53412.0,STARLINK-4496,PAYLOAD,2023-09-25 01:45:05,15.08845876,0.0001178,53.2159,179.19,81.1451,278.9675,0.00017221,2.454e-05,0.0,0 STARLINK-4496,1 53412U 22097AA  23268.07297643  .00002454  00000-0  17221-3 0  9995,2 53412  53.2159 179.1900 0001178  81.1451 278.9675 15.08845876 62808,6917.862,95.437,540.542,538.913,0.0
53412.0,STARLINK-4496,PAYLOAD,2023-09-25 11:17:23,15.08852584,0.000114,53.2157,177.4066,90.0812,270.0311,0.00032795,4.937e-05,0.0,0 STARLINK-4496,1 53412U 22097AA  23268.47041251  .00004937  00000-0  32795-3 0  9992,2 53412  53.2157 177.4066 0001140  90.0812 270.0311 15.08852584 63354,6917.842,95.437,540.496,538.918,0.0
53412.0,STARLINK-4496,PAYLOAD,2023-09-26 01:35:51,15.08875374,0.0001228,53.216,174.7286,101.6745,258.4385,0.00099763,0.0001564,0.0,0 STARLINK-4496,1 53412U 22097AA  23269.06656274  .00015640  00000-0  99763-3 0  9996,2 53412  53.2160 174.7286 0001228 101.6745 258.4385 15.08875374 62951,6917.772,95.435,540.487,538.788,0.0
53412.0,STARLINK-4496,PAYLOAD,2023-09-26 17:29:43,15.08839256,0.0001599,53.215,171.7573,84.5489,275.5686,-4.9961e-05,-1.083e-05,0.0,0 STARLINK-4496,1 53412U 22097AA  23269.72897119 -.00001083  00000-0 -49961-4 0  9998,2 53412  53.2150 171.7573 0001599  84.5489 275.5686 15.08839256 63056,6917.883,95.438,540.854,538.641,0.0
53412.0,STARLINK-4496,PAYLOAD,2023-09-27 10:58:58,15.08825461,0.0001601,53.2154,168.4836,88.5154,271.6021,-5.3472e-05,-1.139e-05,0.0,0 STARLINK-4496,1 53412U 22097AA  23270.45762094 -.00001139  00000-0 -53472-4 0  9997,2 53412  53.2154 168.4836 0001601  88.5154 271.6021 15.08825461 63651,6917.925,95.438,540.897,538.682,0.0
53412.0,STARLINK-4496,PAYLOAD,2023-09-27 20:31:17,15.08820677,0.0001662,53.2156,166.6991,99.1106,261.0074,-8.888e-05,-1.702e-05,0.0,0 STARLINK-4496,1 53412U 22097AA  23270.85506797 -.00001702  00000-0 -88880-4 0  9994,2 53412  53.2156 166.6991 0001662  99.1106 261.0074 15.08820677 63225,6917.939,95.439,540.954,538.655,0.0
53412.0,STARLINK-4496,PAYLOAD,2023-09-27 23:42:03,15.08831563,0.0001672,53.2163,166.1045,100.7761,259.3419,-0.00022263,-3.829e-05,0.0,0 STARLINK-4496,1 53412U 22097AA  23270.98754592 -.00003829  00000-0 -22263-3 0  9990,2 53412  53.2163 166.1045 0001672 100.7761 259.3419 15.08831563 63246,6917.906,95.438,540.928,538.615,0.0
53412.0,STARLINK-4496,PAYLOAD,2023-09-28 17:11:18,15.08838567,0.0001794,53.216,162.8323,109.5791,250.5395,0.00031013,4.651e-05,0.0,0 STARLINK-4496,1 53412U 22097AA  23271.71618707  .00004651  00000-0  31013-3 0  9994,2 53412  53.2160 162.8323 0001794 109.5791 250.5395 15.08838567 63359,6917.885,95.438,540.991,538.509,0.0
53412.0,STARLINK-4496,PAYLOAD,2023-09-28 21:57:27,15.0884778,0.0001713,53.2164,161.944,99.4119,260.7067,0.00053199,8.191e-05,0.0,0 STARLINK-4496,1 53412U 22097AA  23271.91490683  .00008191  00000-0  53199-3 0  9999,2 53412  53.2164 161.9440 0001713  99.4119 260.7067 15.08847780 63878,6917.857,95.437,540.907,538.537,0.0
53412.0,STARLINK-4496,PAYLOAD,2023-09-29 01:08:13,15.08854314,0.0001795,53.216,161.3467,103.983,256.1362,0.00061071,9.449e-05,0.0,0 STARLINK-4496,1 53412U 22097AA  23272.04738377  .00009449  00000-0  61071-3 0  9994,2 53412  53.2160 161.3467 0001795 103.9830 256.1362 15.08854314 63405,6917.837,95.437,540.943,538.46,0.0
